ONEWEB-0229             
1 48779U 21045N   25199.62641967  .00000018  00000+0  14749-4 0  9991
2 48779  87.9073 325.7007 0002094 100.7353 259.4013 13.15549402200559
ONEWEB-0228             
1 48780U 21045P   25199.58377022  .00000192  00000+0  47706-3 0  9997
2 48780  87.9074 325.6836 0002080  97.5815 262.5552 13.15549820201594
ONEWEB-0232             
1 48781U 21045Q   25199.63435697  .00000143  00000+0  34582-3 0  9991
2 48781  87.9069 325.6686 0001970  98.4767 261.6587 13.15549053200792
ONEWEB-0231             
1 48782U 21045R   25199.61216378 -.00000053  00000+0 -17471-3 0  9993
2 48782  87.9063 325.7272 0002211  97.2038 262.9343 13.15548900200486
ONEWEB-0234             
1 48783U 21045S   25199.41969980  .00000203  00000+0  51010-3 0  9998
2 48783  87.9069 325.7305 0001144  73.4744 286.6512 13.15029145200592
ONEWEB-0238             
1 48784U 21045T   25199.42214487  .00000149  00000+0  36107-3 0  9994
2 48784  87.9063 325.7295 0001551  96.2618 263.8689 13.15547246200498
ONEWEB-0240             
1 48785U 21045U   25199.36736285 -.00000010  00000+0 -59946-4 0  9999
2 48785  87.9073 325.7204 0002107  88.9048 271.2324 13.15548603200513
ONEWEB-0246             
1 48786U 21045V   25199.58998285  .00000155  00000+0  37896-3 0  9991
2 48786  87.9077 325.6873 0002086 100.9163 259.2202 13.15549747200418
